BRO-1                   
1 44495U 19054A   26199.67137531  .08990616  10538-4  46223-3 0  9995
2 44495  44.9686  96.8667 0008979 246.6096 113.3886 16.42254960384793
BRO-5                   
1 51061U 22002CF  26200.24361288  .00017157  00000+0  31804-3 0  9992
2 51061  97.2975 274.2337 0005811 188.4844 171.6310 15.49027183251214
BRO-6                   
1 52422U 22047AE  26200.18837035  .00025263  00000+0  40927-3 0  9997
2 52422  97.3381 291.9097 0002854 286.6860  73.4079 15.52776336236118
BRO-8                   
1 55011U 23001C   26200.19752472  .00019269  00000+0  33414-3 0  9999
2 55011  97.3177 265.8835 0004424  25.3667 334.7801 15.50911881197167
BRO-11                  
1 58264U 23174J   26200.28095678  .00002399  00000+0  91449-4 0  9990
2 58264  97.3891 276.8340 0012017  95.3741 264.8869 15.27611961149651
BRO-13                  
1 59107U 24043K   26200.31807671  .00001116  00000+0  10301-3 0  9994
2 59107  97.8535 331.4458 0007403 246.0105 114.0342 14.96659999129421
BRO-12                  
1 59108U 24043L   26200.30896031  .00000960  00000+0  88811-4 0  9990
2 59108  97.8517 331.6065 0007006 238.7993 121.2542 14.96899989129449
BRO-14                  
1 60551U 24149CM  26200.16250294  .00000991  00000+0  92860-4 0  9993
2 60551  97.6864 275.3652 0006431   6.2131 353.9169 14.96243700104777
BRO-15                  
1 60553U 24149CP  26200.14523374  .00000567  00000+0  55344-4 0  9990
2 60553  97.6789 274.9201 0007295 351.7230   8.3870 14.96224951104785
BRO-16                  
1 62654U 25009AX  26200.18496774  .00001917  00000+0  81731-4 0  9996
2 62654  97.4051 280.2777 0002420 145.6855 214.4539 15.24144413 83677
BRO-18                  
1 64550U 25135Y   26200.26728743  .00002174  00000+0  97781-4 0  9994
2 64550  97.4655 315.0556 0002605 110.5422 249.6094 15.22190723 59753
BRO-17                  
1 66672U 25276G   26200.15078156  .00001631  00000+0  83099-4 0  9995
2 66672  97.4178 272.6415 0005354 241.6445 118.4250 15.18171827 35241
BRO-20                  
1 66674U 25276J   26200.19226711  .00001595  00000+0  80959-4 0  9994
2 66674  97.4158 272.6703 0004856 244.7322 115.3409 15.18339072 35256
BRO-19                  
1 68422U 26067G   26200.13218105  .00001930  00000+0  95464-4 0  9998
2 68422  97.4495 158.1365 0002656 104.3802 255.7727 15.19004948 16797
BRO-21                  
1 69007U 26100AD  26200.21821321  .00003278  00000+0  14810-3 0  9997
2 69007  97.4000  97.5875 0006506 311.8763  48.1917 15.21642373 11670
BRO-22                  
1 69504U 26132C   26200.17731727  .00001467  00000+0  12304-3 0  9993
2 69504  97.6825 263.4463 0017014 166.4110 193.7575 14.99819147  5570
