{"fetched_at":"2026-07-19T17:31:21.928Z","source":"https://celestrak.org/NORAD/elements/gp.php?NAME=BRO&FORMAT=JSON","constellation":"unseenlabs","records":[{"OBJECT_NAME":"BRO-1","OBJECT_ID":"2019-054A","EPOCH":"2026-07-18T16:06:46.826784","CLASSIFICATION_TYPE":"U","MEAN_MOTION":16.4225496,"ECCENTRICITY":0.00089797,"INCLINATION":44.9686,"RA_OF_ASC_NODE":96.8667,"ARG_OF_PERICENTER":246.6096,"MEAN_ANOMALY":113.3886,"EPHEMERIS_TYPE":0,"NORAD_CAT_ID":44495,"ELEMENT_SET_NO":999,"REV_AT_EPOCH":38479,"BSTAR":0.00046223003,"MEAN_MOTION_DOT":0.08990616,"MEAN_MOTION_DDOT":0.00001053819},{"OBJECT_NAME":"BRO-5","OBJECT_ID":"2022-002CF","EPOCH":"2026-07-19T05:50:48.152832","CLASSIFICATION_TYPE":"U","MEAN_MOTION":15.49027183,"ECCENTRICITY":0.00058119,"INCLINATION":97.2975,"RA_OF_ASC_NODE":274.2337,"ARG_OF_PERICENTER":188.4844,"MEAN_ANOMALY":171.631,"EPHEMERIS_TYPE":0,"NORAD_CAT_ID":51061,"ELEMENT_SET_NO":999,"REV_AT_EPOCH":25121,"BSTAR":0.00031803871,"MEAN_MOTION_DOT":0.00017157,"MEAN_MOTION_DDOT":0},{"OBJECT_NAME":"BRO-6","OBJECT_ID":"2022-047AE","EPOCH":"2026-07-19T04:31:15.198240","CLASSIFICATION_TYPE":"U","MEAN_MOTION":15.52776336,"ECCENTRICITY":0.00028548,"INCLINATION":97.3381,"RA_OF_ASC_NODE":291.9097,"ARG_OF_PERICENTER":286.686,"MEAN_ANOMALY":73.4079,"EPHEMERIS_TYPE":0,"NORAD_CAT_ID":52422,"ELEMENT_SET_NO":999,"REV_AT_EPOCH":23611,"BSTAR":0.00040926953,"MEAN_MOTION_DOT":0.00025263,"MEAN_MOTION_DDOT":0},{"OBJECT_NAME":"BRO-8","OBJECT_ID":"2023-001C","EPOCH":"2026-07-19T04:44:26.135808","CLASSIFICATION_TYPE":"U","MEAN_MOTION":15.50911881,"ECCENTRICITY":0.00044248,"INCLINATION":97.3177,"RA_OF_ASC_NODE":265.8835,"ARG_OF_PERICENTER":25.3667,"MEAN_ANOMALY":334.7801,"EPHEMERIS_TYPE":0,"NORAD_CAT_ID":55011,"ELEMENT_SET_NO":999,"REV_AT_EPOCH":19716,"BSTAR":0.00033413564,"MEAN_MOTION_DOT":0.00019269,"MEAN_MOTION_DDOT":0},{"OBJECT_NAME":"BRO-11","OBJECT_ID":"2023-174J","EPOCH":"2026-07-19T06:44:34.665792","CLASSIFICATION_TYPE":"U","MEAN_MOTION":15.27611961,"ECCENTRICITY":0.00120177,"INCLINATION":97.3891,"RA_OF_ASC_NODE":276.834,"ARG_OF_PERICENTER":95.3741,"MEAN_ANOMALY":264.8869,"EPHEMERIS_TYPE":0,"NORAD_CAT_ID":58264,"ELEMENT_SET_NO":999,"REV_AT_EPOCH":14965,"BSTAR":0.000091448761,"MEAN_MOTION_DOT":0.00002399,"MEAN_MOTION_DDOT":0},{"OBJECT_NAME":"BRO-13","OBJECT_ID":"2024-043K","EPOCH":"2026-07-19T07:38:01.827744","CLASSIFICATION_TYPE":"U","MEAN_MOTION":14.96659999,"ECCENTRICITY":0.00074031,"INCLINATION":97.8535,"RA_OF_ASC_NODE":331.4458,"ARG_OF_PERICENTER":246.0105,"MEAN_ANOMALY":114.0342,"EPHEMERIS_TYPE":0,"NORAD_CAT_ID":59107,"ELEMENT_SET_NO":999,"REV_AT_EPOCH":12942,"BSTAR":0.00010301282,"MEAN_MOTION_DOT":0.00001116,"MEAN_MOTION_DDOT":0},{"OBJECT_NAME":"BRO-12","OBJECT_ID":"2024-043L","EPOCH":"2026-07-19T07:24:54.170784","CLASSIFICATION_TYPE":"U","MEAN_MOTION":14.96899989,"ECCENTRICITY":0.00070064,"INCLINATION":97.8517,"RA_OF_ASC_NODE":331.6065,"ARG_OF_PERICENTER":238.7993,"MEAN_ANOMALY":121.2542,"EPHEMERIS_TYPE":0,"NORAD_CAT_ID":59108,"ELEMENT_SET_NO":999,"REV_AT_EPOCH":12944,"BSTAR":0.000088810928,"MEAN_MOTION_DOT":0.0000096,"MEAN_MOTION_DDOT":0},{"OBJECT_NAME":"BRO-14","OBJECT_ID":"2024-149CM","EPOCH":"2026-07-19T03:54:00.254016","CLASSIFICATION_TYPE":"U","MEAN_MOTION":14.962437,"ECCENTRICITY":0.00064316,"INCLINATION":97.6864,"RA_OF_ASC_NODE":275.3652,"ARG_OF_PERICENTER":6.2131,"MEAN_ANOMALY":353.9169,"EPHEMERIS_TYPE":0,"NORAD_CAT_ID":60551,"ELEMENT_SET_NO":999,"REV_AT_EPOCH":10477,"BSTAR":0.000092859567,"MEAN_MOTION_DOT":0.00000991,"MEAN_MOTION_DDOT":0},{"OBJECT_NAME":"BRO-15","OBJECT_ID":"2024-149CP","EPOCH":"2026-07-19T03:29:08.195136","CLASSIFICATION_TYPE":"U","MEAN_MOTION":14.96224951,"ECCENTRICITY":0.00072956,"INCLINATION":97.6789,"RA_OF_ASC_NODE":274.9201,"ARG_OF_PERICENTER":351.723,"MEAN_ANOMALY":8.387,"EPHEMERIS_TYPE":0,"NORAD_CAT_ID":60553,"ELEMENT_SET_NO":999,"REV_AT_EPOCH":10478,"BSTAR":0.00005534371,"MEAN_MOTION_DOT":0.00000567,"MEAN_MOTION_DDOT":0},{"OBJECT_NAME":"BRO-16","OBJECT_ID":"2025-009AX","EPOCH":"2026-07-19T04:26:21.212736","CLASSIFICATION_TYPE":"U","MEAN_MOTION":15.24144413,"ECCENTRICITY":0.00024205,"INCLINATION":97.4051,"RA_OF_ASC_NODE":280.2777,"ARG_OF_PERICENTER":145.6855,"MEAN_ANOMALY":214.4539,"EPHEMERIS_TYPE":0,"NORAD_CAT_ID":62654,"ELEMENT_SET_NO":999,"REV_AT_EPOCH":8367,"BSTAR":0.000081730866,"MEAN_MOTION_DOT":0.00001917,"MEAN_MOTION_DDOT":0},{"OBJECT_NAME":"BRO-18","OBJECT_ID":"2025-135Y","EPOCH":"2026-07-19T06:24:53.633952","CLASSIFICATION_TYPE":"U","MEAN_MOTION":15.22190723,"ECCENTRICITY":0.00026057,"INCLINATION":97.4655,"RA_OF_ASC_NODE":315.0556,"ARG_OF_PERICENTER":110.5422,"MEAN_ANOMALY":249.6094,"EPHEMERIS_TYPE":0,"NORAD_CAT_ID":64550,"ELEMENT_SET_NO":999,"REV_AT_EPOCH":5975,"BSTAR":0.000097781464,"MEAN_MOTION_DOT":0.00002174,"MEAN_MOTION_DDOT":0},{"OBJECT_NAME":"BRO-17","OBJECT_ID":"2025-276G","EPOCH":"2026-07-19T03:37:07.526784","CLASSIFICATION_TYPE":"U","MEAN_MOTION":15.18171827,"ECCENTRICITY":0.00053546,"INCLINATION":97.4178,"RA_OF_ASC_NODE":272.6415,"ARG_OF_PERICENTER":241.6445,"MEAN_ANOMALY":118.425,"EPHEMERIS_TYPE":0,"NORAD_CAT_ID":66672,"ELEMENT_SET_NO":999,"REV_AT_EPOCH":3524,"BSTAR":0.000083099208,"MEAN_MOTION_DOT":0.00001631,"MEAN_MOTION_DDOT":0},{"OBJECT_NAME":"BRO-20","OBJECT_ID":"2025-276J","EPOCH":"2026-07-19T04:36:51.878304","CLASSIFICATION_TYPE":"U","MEAN_MOTION":15.18339072,"ECCENTRICITY":0.00048568,"INCLINATION":97.4158,"RA_OF_ASC_NODE":272.6703,"ARG_OF_PERICENTER":244.7322,"MEAN_ANOMALY":115.3409,"EPHEMERIS_TYPE":0,"NORAD_CAT_ID":66674,"ELEMENT_SET_NO":999,"REV_AT_EPOCH":3525,"BSTAR":0.000080959101,"MEAN_MOTION_DOT":0.00001595,"MEAN_MOTION_DDOT":0},{"OBJECT_NAME":"BRO-19","OBJECT_ID":"2026-067G","EPOCH":"2026-07-19T03:10:20.442720","CLASSIFICATION_TYPE":"U","MEAN_MOTION":15.19004948,"ECCENTRICITY":0.00026561,"INCLINATION":97.4495,"RA_OF_ASC_NODE":158.1365,"ARG_OF_PERICENTER":104.3802,"MEAN_ANOMALY":255.7727,"EPHEMERIS_TYPE":0,"NORAD_CAT_ID":68422,"ELEMENT_SET_NO":999,"REV_AT_EPOCH":1679,"BSTAR":0.00009546413,"MEAN_MOTION_DOT":0.0000193,"MEAN_MOTION_DDOT":0},{"OBJECT_NAME":"BRO-21","OBJECT_ID":"2026-100AD","EPOCH":"2026-07-19T05:14:13.621344","CLASSIFICATION_TYPE":"U","MEAN_MOTION":15.21642373,"ECCENTRICITY":0.00065063,"INCLINATION":97.4,"RA_OF_ASC_NODE":97.5875,"ARG_OF_PERICENTER":311.8763,"MEAN_ANOMALY":48.1917,"EPHEMERIS_TYPE":0,"NORAD_CAT_ID":69007,"ELEMENT_SET_NO":999,"REV_AT_EPOCH":1167,"BSTAR":0.00014809748,"MEAN_MOTION_DOT":0.00003278,"MEAN_MOTION_DDOT":0},{"OBJECT_NAME":"BRO-22","OBJECT_ID":"2026-132C","EPOCH":"2026-07-19T04:15:20.212128","CLASSIFICATION_TYPE":"U","MEAN_MOTION":14.99819147,"ECCENTRICITY":0.00170144,"INCLINATION":97.6825,"RA_OF_ASC_NODE":263.4463,"ARG_OF_PERICENTER":166.411,"MEAN_ANOMALY":193.7575,"EPHEMERIS_TYPE":0,"NORAD_CAT_ID":69504,"ELEMENT_SET_NO":999,"REV_AT_EPOCH":557,"BSTAR":0.00012303835,"MEAN_MOTION_DOT":0.00001467,"MEAN_MOTION_DDOT":0}]}
